[{"OBJECT_NAME":"STARLINK-36182","OBJECT_ID":"2025-304A","EPOCH":"2026-03-09T16:24:16.808832","MEAN_MOTION":14.98330411,"ECCENTRICITY":0.00038051,"INCLINATION":70.0026,"RA_OF_ASC_NODE":174.4842,"ARG_OF_PERICENTER":265.7123,"MEAN_ANOMALY":94.3601,"EPHEMERIS_TYPE":0,"CLASSIFICATION_TYPE":"U","NORAD_CAT_ID":67192,"ELEMENT_SET_NO":999,"REV_AT_EPOCH":1385,"BSTAR":0.00028103913,"MEAN_MOTION_DOT":3.262e-5,"MEAN_MOTION_DDOT":0},{"OBJECT_NAME":"FENGYUN 1C DEB","OBJECT_ID":"1999-025CBA","EPOCH":"2026-03-08T12:23:36.052800","MEAN_MOTION":14.69215885,"ECCENTRICITY":0.01503921,"INCLINATION":98.6639,"RA_OF_ASC_NODE":327.5015,"ARG_OF_PERICENTER":276.1156,"MEAN_ANOMALY":208.7526,"EPHEMERIS_TYPE":0,"CLASSIFICATION_TYPE":"U","NORAD_CAT_ID":31644,"ELEMENT_SET_NO":999,"REV_AT_EPOCH":72303,"BSTAR":0.0014660456,"MEAN_MOTION_DOT":0.00010219,"MEAN_MOTION_DDOT":0}]
